KUIPER-00114            
1 65151U 25171V   26195.68217390  .00001754  00000+0  25893-3 0  9999
2 65151  51.9007 334.0347 0000499 112.9981 247.1034 14.79937498 51445
KUIPER-00115            
1 65152U 25171W   26195.55520829  .00001581  00000+0  23630-3 0  9995
2 65152  51.9021 327.0984 0000372 108.9058 251.1944 14.79936177 51539
KUIPER-00116            
1 65153U 25171X   26195.58358777  .00001639  00000+0  24400-3 0  9990
2 65153  51.9019 332.0068 0000539 126.6385 233.4627 14.79932722 51466
KUIPER-00118            
1 65154U 25171Y   26195.58086010  .00001304  00000+0  20007-3 0  9997
2 65154  51.9016 334.4702 0000558 107.7573 252.3450 14.79919402 51436
KUIPER-00119            
1 65155U 25171Z   26195.66190793  .00000338  00000+0  73311-4 0  9994
2 65155  51.9036 321.7076 0000043 165.9246 194.1717 14.79934276 51619
KUIPER-00120            
1 65762U 25217A   26196.03379242  .00001314  00000+0  20132-3 0  9996
2 65762  51.8997 209.9413 0000402  89.4911 270.6098 14.79932359 43598
KUIPER-00132            
1 65763U 25217B   26195.99588458  .00027594  00000+0  61534-3 0  9991
2 65763  51.8562 103.6690 0006957  64.7384 295.4326 15.43346325 45062
KUIPER-00133            
1 65764U 25217C   26196.06757140  .00001093  00000+0  17234-3 0  9991
2 65764  51.9035 209.9007 0000443  78.4697 281.6315 14.79933125 43605
KUIPER-00139            
1 65765U 25217D   26196.17012875  .00001235  00000+0  19098-3 0  9991
2 65765  51.8977 176.9044 0000670  72.4358 287.6677 14.79936365 44072
KUIPER-00142            
1 65766U 25217E   26195.98510153  .00001162  00000+0  18131-3 0  9998
2 65766  51.8984 192.6829 0000486  68.1755 291.9259 14.79938824 43834
KUIPER-00145            
1 65767U 25217F   26196.05001589  .00001348  00000+0  20582-3 0  9995
2 65767  51.8994 194.9195 0000575  73.2997 286.8029 14.79917654 43804
KUIPER-00147            
1 65768U 25217G   26196.01349190  .00001082  00000+0  17092-3 0  9992
2 65768  51.8981 197.5597 0000480  72.5252 287.5763 14.79937403 43769
KUIPER-00148            
1 65769U 25217H   26196.16670139  .00025030  00000+0  33516-2 0  9996
2 65769  51.9027 179.3912 0001525  93.3606 265.0302 14.79279164  4856
KUIPER-00150            
1 65770U 25217J   26196.07025509  .00001159  00000+0  18097-3 0  9997
2 65770  51.8998 207.3433 0000366  61.4020 298.6979 14.79934058 43633
KUIPER-00151            
1 65771U 25217K   26196.01077882  .00001136  00000+0  17798-3 0  9995
2 65771  51.9007 200.1034 0000403  73.4654 286.6352 14.79939951 43732
KUIPER-00152            
1 65772U 25217L   26196.12561166  .00001170  00000+0  18243-3 0  9995
2 65772  51.9001 187.0806 0000653  59.6285 300.4742 14.79929721 43923
