{"fetched_at":"2026-07-15T17:46:44.919Z","source":"https://celestrak.org/NORAD/elements/gp.php?GROUP=kuiper&FORMAT=JSON","constellation":"kuiper","records":[{"OBJECT_NAME":"KUIPER-00114","OBJECT_ID":"2025-171V","EPOCH":"2026-07-14T16:22:19.824960","CLASSIFICATION_TYPE":"U","MEAN_MOTION":14.79937498,"ECCENTRICITY":0.00004991,"INCLINATION":51.9007,"RA_OF_ASC_NODE":334.0347,"ARG_OF_PERICENTER":112.9981,"MEAN_ANOMALY":247.1034,"EPHEMERIS_TYPE":0,"NORAD_CAT_ID":65151,"ELEMENT_SET_NO":999,"REV_AT_EPOCH":5144,"BSTAR":0.00025893003,"MEAN_MOTION_DOT":0.00001754,"MEAN_MOTION_DDOT":0},{"OBJECT_NAME":"KUIPER-00115","OBJECT_ID":"2025-171W","EPOCH":"2026-07-14T13:19:29.996256","CLASSIFICATION_TYPE":"U","MEAN_MOTION":14.79936177,"ECCENTRICITY":0.0000372,"INCLINATION":51.9021,"RA_OF_ASC_NODE":327.0984,"ARG_OF_PERICENTER":108.9058,"MEAN_ANOMALY":251.1944,"EPHEMERIS_TYPE":0,"NORAD_CAT_ID":65152,"ELEMENT_SET_NO":999,"REV_AT_EPOCH":5153,"BSTAR":0.0002363,"MEAN_MOTION_DOT":0.00001581,"MEAN_MOTION_DDOT":0},{"OBJECT_NAME":"KUIPER-00116","OBJECT_ID":"2025-171X","EPOCH":"2026-07-14T14:00:21.983328","CLASSIFICATION_TYPE":"U","MEAN_MOTION":14.79932722,"ECCENTRICITY":0.0000539,"INCLINATION":51.9019,"RA_OF_ASC_NODE":332.0068,"ARG_OF_PERICENTER":126.6385,"MEAN_ANOMALY":233.4627,"EPHEMERIS_TYPE":0,"NORAD_CAT_ID":65153,"ELEMENT_SET_NO":999,"REV_AT_EPOCH":5146,"BSTAR":0.000244,"MEAN_MOTION_DOT":0.00001639,"MEAN_MOTION_DDOT":0},{"OBJECT_NAME":"KUIPER-00118","OBJECT_ID":"2025-171Y","EPOCH":"2026-07-14T13:56:26.312640","CLASSIFICATION_TYPE":"U","MEAN_MOTION":14.79919402,"ECCENTRICITY":0.0000558,"INCLINATION":51.9016,"RA_OF_ASC_NODE":334.4702,"ARG_OF_PERICENTER":107.7573,"MEAN_ANOMALY":252.345,"EPHEMERIS_TYPE":0,"NORAD_CAT_ID":65154,"ELEMENT_SET_NO":999,"REV_AT_EPOCH":5143,"BSTAR":0.00020007,"MEAN_MOTION_DOT":0.00001304,"MEAN_MOTION_DDOT":0},{"OBJECT_NAME":"KUIPER-00119","OBJECT_ID":"2025-171Z","EPOCH":"2026-07-14T15:53:08.845152","CLASSIFICATION_TYPE":"U","MEAN_MOTION":14.79934276,"ECCENTRICITY":0.00000437,"INCLINATION":51.9036,"RA_OF_ASC_NODE":321.7076,"ARG_OF_PERICENTER":165.9246,"MEAN_ANOMALY":194.1717,"EPHEMERIS_TYPE":0,"NORAD_CAT_ID":65155,"ELEMENT_SET_NO":999,"REV_AT_EPOCH":5161,"BSTAR":0.000073310644,"MEAN_MOTION_DOT":0.00000338,"MEAN_MOTION_DDOT":0},{"OBJECT_NAME":"KUIPER-00120","OBJECT_ID":"2025-217A","EPOCH":"2026-07-15T00:48:39.665088","CLASSIFICATION_TYPE":"U","MEAN_MOTION":14.79932359,"ECCENTRICITY":0.0000402,"INCLINATION":51.8997,"RA_OF_ASC_NODE":209.9413,"ARG_OF_PERICENTER":89.4911,"MEAN_ANOMALY":270.6098,"EPHEMERIS_TYPE":0,"NORAD_CAT_ID":65762,"ELEMENT_SET_NO":999,"REV_AT_EPOCH":4359,"BSTAR":0.00020132,"MEAN_MOTION_DOT":0.00001314,"MEAN_MOTION_DDOT":0},{"OBJECT_NAME":"KUIPER-00132","OBJECT_ID":"2025-217B","EPOCH":"2026-07-14T23:54:04.427712","CLASSIFICATION_TYPE":"U","MEAN_MOTION":15.43346325,"ECCENTRICITY":0.0006957,"INCLINATION":51.8562,"RA_OF_ASC_NODE":103.669,"ARG_OF_PERICENTER":64.7384,"MEAN_ANOMALY":295.4326,"EPHEMERIS_TYPE":0,"NORAD_CAT_ID":65763,"ELEMENT_SET_NO":999,"REV_AT_EPOCH":4506,"BSTAR":0.00061534,"MEAN_MOTION_DOT":0.00027594,"MEAN_MOTION_DDOT":0},{"OBJECT_NAME":"KUIPER-00133","OBJECT_ID":"2025-217C","EPOCH":"2026-07-15T01:37:18.168960","CLASSIFICATION_TYPE":"U","MEAN_MOTION":14.79933125,"ECCENTRICITY":0.0000443,"INCLINATION":51.9035,"RA_OF_ASC_NODE":209.9007,"ARG_OF_PERICENTER":78.4697,"MEAN_ANOMALY":281.6315,"EPHEMERIS_TYPE":0,"NORAD_CAT_ID":65764,"ELEMENT_SET_NO":999,"REV_AT_EPOCH":4360,"BSTAR":0.00017234,"MEAN_MOTION_DOT":0.00001093,"MEAN_MOTION_DDOT":0},{"OBJECT_NAME":"KUIPER-00139","OBJECT_ID":"2025-217D","EPOCH":"2026-07-15T04:04:59.124000","CLASSIFICATION_TYPE":"U","MEAN_MOTION":14.79936365,"ECCENTRICITY":0.000067,"INCLINATION":51.8977,"RA_OF_ASC_NODE":176.9044,"ARG_OF_PERICENTER":72.4358,"MEAN_ANOMALY":287.6677,"EPHEMERIS_TYPE":0,"NORAD_CAT_ID":65765,"ELEMENT_SET_NO":999,"REV_AT_EPOCH":4407,"BSTAR":0.00019098,"MEAN_MOTION_DOT":0.00001235,"MEAN_MOTION_DDOT":0},{"OBJECT_NAME":"KUIPER-00142","OBJECT_ID":"2025-217E","EPOCH":"2026-07-14T23:38:32.772192","CLASSIFICATION_TYPE":"U","MEAN_MOTION":14.79938824,"ECCENTRICITY":0.0000486,"INCLINATION":51.8984,"RA_OF_ASC_NODE":192.6829,"ARG_OF_PERICENTER":68.1755,"MEAN_ANOMALY":291.9259,"EPHEMERIS_TYPE":0,"NORAD_CAT_ID":65766,"ELEMENT_SET_NO":999,"REV_AT_EPOCH":4383,"BSTAR":0.00018131,"MEAN_MOTION_DOT":0.00001162,"MEAN_MOTION_DDOT":0},{"OBJECT_NAME":"KUIPER-00145","OBJECT_ID":"2025-217F","EPOCH":"2026-07-15T01:12:01.372896","CLASSIFICATION_TYPE":"U","MEAN_MOTION":14.79917654,"ECCENTRICITY":0.0000575,"INCLINATION":51.8994,"RA_OF_ASC_NODE":194.9195,"ARG_OF_PERICENTER":73.2997,"MEAN_ANOMALY":286.8029,"EPHEMERIS_TYPE":0,"NORAD_CAT_ID":65767,"ELEMENT_SET_NO":999,"REV_AT_EPOCH":4380,"BSTAR":0.00020582,"MEAN_MOTION_DOT":0.00001348,"MEAN_MOTION_DDOT":0},{"OBJECT_NAME":"KUIPER-00147","OBJECT_ID":"2025-217G","EPOCH":"2026-07-15T00:19:25.700160","CLASSIFICATION_TYPE":"U","MEAN_MOTION":14.79937403,"ECCENTRICITY":0.000048,"INCLINATION":51.8981,"RA_OF_ASC_NODE":197.5597,"ARG_OF_PERICENTER":72.5252,"MEAN_ANOMALY":287.5763,"EPHEMERIS_TYPE":0,"NORAD_CAT_ID":65768,"ELEMENT_SET_NO":999,"REV_AT_EPOCH":4376,"BSTAR":0.00017092,"MEAN_MOTION_DOT":0.00001082,"MEAN_MOTION_DDOT":0},{"OBJECT_NAME":"KUIPER-00148","OBJECT_ID":"2025-217H","EPOCH":"2026-07-15T04:00:03.000096","CLASSIFICATION_TYPE":"U","MEAN_MOTION":14.79279164,"ECCENTRICITY":0.0001525,"INCLINATION":51.9027,"RA_OF_ASC_NODE":179.3912,"ARG_OF_PERICENTER":93.3606,"MEAN_ANOMALY":265.0302,"EPHEMERIS_TYPE":0,"NORAD_CAT_ID":65769,"ELEMENT_SET_NO":999,"REV_AT_EPOCH":485,"BSTAR":0.0033516,"MEAN_MOTION_DOT":0.0002503,"MEAN_MOTION_DDOT":0},{"OBJECT_NAME":"KUIPER-00150","OBJECT_ID":"2025-217J","EPOCH":"2026-07-15T01:41:10.039776","CLASSIFICATION_TYPE":"U","MEAN_MOTION":14.79934058,"ECCENTRICITY":0.0000366,"INCLINATION":51.8998,"RA_OF_ASC_NODE":207.3433,"ARG_OF_PERICENTER":61.402,"MEAN_ANOMALY":298.6979,"EPHEMERIS_TYPE":0,"NORAD_CAT_ID":65770,"ELEMENT_SET_NO":999,"REV_AT_EPOCH":4363,"BSTAR":0.00018097,"MEAN_MOTION_DOT":0.00001159,"MEAN_MOTION_DDOT":0},{"OBJECT_NAME":"KUIPER-00151","OBJECT_ID":"2025-217K","EPOCH":"2026-07-15T00:15:31.290048","CLASSIFICATION_TYPE":"U","MEAN_MOTION":14.79939951,"ECCENTRICITY":0.0000403,"INCLINATION":51.9007,"RA_OF_ASC_NODE":200.1034,"ARG_OF_PERICENTER":73.4654,"MEAN_ANOMALY":286.6352,"EPHEMERIS_TYPE":0,"NORAD_CAT_ID":65771,"ELEMENT_SET_NO":999,"REV_AT_EPOCH":4373,"BSTAR":0.00017798,"MEAN_MOTION_DOT":0.00001136,"MEAN_MOTION_DDOT":0},{"OBJECT_NAME":"KUIPER-00152","OBJECT_ID":"2025-217L","EPOCH":"2026-07-15T03:00:52.847424","CLASSIFICATION_TYPE":"U","MEAN_MOTION":14.79929721,"ECCENTRICITY":0.0000653,"INCLINATION":51.9001,"RA_OF_ASC_NODE":187.0806,"ARG_OF_PERICENTER":59.6285,"MEAN_ANOMALY":300.4742,"EPHEMERIS_TYPE":0,"NORAD_CAT_ID":65772,"ELEMENT_SET_NO":999,"REV_AT_EPOCH":4392,"BSTAR":0.00018243,"MEAN_MOTION_DOT":0.0000117,"MEAN_MOTION_DDOT":0}]}
